[{"OBJECT_NAME":"STARLINK-11144 [DTC]","OBJECT_ID":"2024-107L","EPOCH":"2025-11-26T04:40:56.913024","MEAN_MOTION":15.69708027,"ECCENTRICITY":0.0001057,"INCLINATION":53.158,"RA_OF_ASC_NODE":41.2635,"ARG_OF_PERICENTER":75.0607,"MEAN_ANOMALY":285.0528,"EPHEMERIS_TYPE":0,"CLASSIFICATION_TYPE":"U","NORAD_CAT_ID":59955,"ELEMENT_SET_NO":999,"REV_AT_EPOCH":8595,"BSTAR":3.9443e-6,"MEAN_MOTION_DOT":-1.11e-6,"MEAN_MOTION_DDOT":0},{"OBJECT_NAME":"STARLINK-11134 [DTC]","OBJECT_ID":"2024-107M","EPOCH":"2025-11-26T04:33:53.172000","MEAN_MOTION":15.69706043,"ECCENTRICITY":8.42e-5,"INCLINATION":53.159,"RA_OF_ASC_NODE":41.2252,"ARG_OF_PERICENTER":104.9798,"MEAN_ANOMALY":255.1313,"EPHEMERIS_TYPE":0,"CLASSIFICATION_TYPE":"U","NORAD_CAT_ID":59956,"ELEMENT_SET_NO":999,"REV_AT_EPOCH":8582,"BSTAR":-1.7389e-6,"MEAN_MOTION_DOT":-7.99e-6,"MEAN_MOTION_DDOT":0},{"OBJECT_NAME":"STARLINK-11142 [DTC]","OBJECT_ID":"2024-107N","EPOCH":"2025-11-26T04:26:49.113888","MEAN_MOTION":15.69713422,"ECCENTRICITY":8.98e-5,"INCLINATION":53.1582,"RA_OF_ASC_NODE":41.1964,"ARG_OF_PERICENTER":59.771,"MEAN_ANOMALY":300.3397,"EPHEMERIS_TYPE":0,"CLASSIFICATION_TYPE":"U","NORAD_CAT_ID":59957,"ELEMENT_SET_NO":999,"REV_AT_EPOCH":8590,"BSTAR":3.2415e-7,"MEAN_MOTION_DOT":-5.49e-6,"MEAN_MOTION_DDOT":0},{"OBJECT_NAME":"STARLINK-31995","OBJECT_ID":"2024-107P","EPOCH":"2025-11-26T00:17:16.345536","MEAN_MOTION":15.30174735,"ECCENTRICITY":5.703e-5,"INCLINATION":53.1589,"RA_OF_ASC_NODE":187.055,"ARG_OF_PERICENTER":69.2776,"MEAN_ANOMALY":290.8286,"EPHEMERIS_TYPE":0,"CLASSIFICATION_TYPE":"U","NORAD_CAT_ID":59958,"ELEMENT_SET_NO":999,"REV_AT_EPOCH":8272,"BSTAR":-4.3574917e-5,"MEAN_MOTION_DOT":-1.648e-5,"MEAN_MOTION_DDOT":0},{"OBJECT_NAME":"STARLINK-31989","OBJECT_ID":"2024-107Q","EPOCH":"2025-11-26T00:08:09.235680","MEAN_MOTION":15.3019274,"ECCENTRICITY":0.00013317,"INCLINATION":53.1594,"RA_OF_ASC_NODE":187.0172,"ARG_OF_PERICENTER":85.4133,"MEAN_ANOMALY":274.702,"EPHEMERIS_TYPE":0,"CLASSIFICATION_TYPE":"U","NORAD_CAT_ID":59959,"ELEMENT_SET_NO":999,"REV_AT_EPOCH":8392,"BSTAR":3.133837e-5,"MEAN_MOTION_DOT":5.69e-6,"MEAN_MOTION_DDOT":0},{"OBJECT_NAME":"STARLINK-31856","OBJECT_ID":"2024-107R","EPOCH":"2025-11-26T00:12:44.440416","MEAN_MOTION":15.30182275,"ECCENTRICITY":0.00014402,"INCLINATION":53.1584,"RA_OF_ASC_NODE":187.0357,"ARG_OF_PERICENTER":81.7442,"MEAN_ANOMALY":278.3722,"EPHEMERIS_TYPE":0,"CLASSIFICATION_TYPE":"U","NORAD_CAT_ID":59960,"ELEMENT_SET_NO":999,"REV_AT_EPOCH":8392,"BSTAR":-8.199294e-6,"MEAN_MOTION_DOT":-6.02e-6,"MEAN_MOTION_DDOT":0},{"OBJECT_NAME":"STARLINK-31993","OBJECT_ID":"2024-107S","EPOCH":"2025-11-26T00:26:23.222112","MEAN_MOTION":15.30197604,"ECCENTRICITY":0.00012363,"INCLINATION":53.1599,"RA_OF_ASC_NODE":187.0918,"ARG_OF_PERICENTER":94.9986,"MEAN_ANOMALY":265.1156,"EPHEMERIS_TYPE":0,"CLASSIFICATION_TYPE":"U","NORAD_CAT_ID":59961,"ELEMENT_SET_NO":999,"REV_AT_EPOCH":8386,"BSTAR":7.270964e-6,"MEAN_MOTION_DOT":-1.44e-6,"MEAN_MOTION_DDOT":0},{"OBJECT_NAME":"STARLINK-31980","OBJECT_ID":"2024-107T","EPOCH":"2025-11-26T00:37:01.833024","MEAN_MOTION":15.30187576,"ECCENTRICITY":0.0001238,"INCLINATION":53.1599,"RA_OF_ASC_NODE":187.1357,"ARG_OF_PERICENTER":88.2329,"MEAN_ANOMALY":271.8814,"EPHEMERIS_TYPE":0,"CLASSIFICATION_TYPE":"U","NORAD_CAT_ID":59962,"ELEMENT_SET_NO":999,"REV_AT_EPOCH":8392,"BSTAR":3.4936e-6,"MEAN_MOTION_DOT":-2.56e-6,"MEAN_MOTION_DDOT":0},{"OBJECT_NAME":"STARLINK-31991","OBJECT_ID":"2024-107U","EPOCH":"2025-11-26T00:21:49.697856","MEAN_MOTION":15.30194097,"ECCENTRICITY":0.00012945,"INCLINATION":53.1586,"RA_OF_ASC_NODE":187.073,"ARG_OF_PERICENTER":85.4214,"MEAN_ANOMALY":274.6935,"EPHEMERIS_TYPE":0,"CLASSIFICATION_TYPE":"U","NORAD_CAT_ID":59963,"ELEMENT_SET_NO":999,"REV_AT_EPOCH":8392,"BSTAR":3.3954102e-5,"MEAN_MOTION_DOT":6.46e-6,"MEAN_MOTION_DDOT":0},{"OBJECT_NAME":"STARLINK-31979","OBJECT_ID":"2024-107V","EPOCH":"2025-11-26T00:32:27.731616","MEAN_MOTION":15.30184662,"ECCENTRICITY":0.00012586,"INCLINATION":53.1594,"RA_OF_ASC_NODE":187.117,"ARG_OF_PERICENTER":74.4646,"MEAN_ANOMALY":285.6494,"EPHEMERIS_TYPE":0,"CLASSIFICATION_TYPE":"U","NORAD_CAT_ID":59964,"ELEMENT_SET_NO":999,"REV_AT_EPOCH":8387,"BSTAR":6.4584071e-5,"MEAN_MOTION_DOT":1.553e-5,"MEAN_MOTION_DDOT":0},{"OBJECT_NAME":"STARLINK-31978","OBJECT_ID":"2024-111A","EPOCH":"2025-11-26T00:00:34.666272","MEAN_MOTION":15.30186254,"ECCENTRICITY":0.00014752,"INCLINATION":53.1575,"RA_OF_ASC_NODE":197.5812,"ARG_OF_PERICENTER":88.1176,"MEAN_ANOMALY":271.9994,"EPHEMERIS_TYPE":0,"CLASSIFICATION_TYPE":"U","NORAD_CAT_ID":60016,"ELEMENT_SET_NO":999,"REV_AT_EPOCH":8305,"BSTAR":3.0777156e-5,"MEAN_MOTION_DOT":5.52e-6,"MEAN_MOTION_DDOT":0},{"OBJECT_NAME":"STARLINK-31987","OBJECT_ID":"2024-111B","EPOCH":"2025-11-25T23:51:27.635040","MEAN_MOTION":15.30193296,"ECCENTRICITY":0.0001164,"INCLINATION":53.1602,"RA_OF_ASC_NODE":197.5411,"ARG_OF_PERICENTER":90.1011,"MEAN_ANOMALY":270.0124,"EPHEMERIS_TYPE":0,"CLASSIFICATION_TYPE":"U","NORAD_CAT_ID":60017,"ELEMENT_SET_NO":999,"REV_AT_EPOCH":8311,"BSTAR":1.5679133e-5,"MEAN_MOTION_DOT":1.05e-6,"MEAN_MOTION_DDOT":0},{"OBJECT_NAME":"STARLINK-31984","OBJECT_ID":"2024-111C","EPOCH":"2025-11-26T01:14:52.502784","MEAN_MOTION":15.30193259,"ECCENTRICITY":0.0001221,"INCLINATION":53.1591,"RA_OF_ASC_NODE":197.1875,"ARG_OF_PERICENTER":76.419,"MEAN_ANOMALY":283.6947,"EPHEMERIS_TYPE":0,"CLASSIFICATION_TYPE":"U","NORAD_CAT_ID":60018,"ELEMENT_SET_NO":999,"REV_AT_EPOCH":8301,"BSTAR":7.9964e-6,"MEAN_MOTION_DOT":-1.22e-6,"MEAN_MOTION_DDOT":0},{"OBJECT_NAME":"STARLINK-31986","OBJECT_ID":"2024-111D","EPOCH":"2025-11-26T01:01:12.139968","MEAN_MOTION":15.3018415,"ECCENTRICITY":0.0001197,"INCLINATION":53.1593,"RA_OF_ASC_NODE":197.1258,"ARG_OF_PERICENTER":82.6145,"MEAN_ANOMALY":277.4992,"EPHEMERIS_TYPE":0,"CLASSIFICATION_TYPE":"U","NORAD_CAT_ID":60019,"ELEMENT_SET_NO":999,"REV_AT_EPOCH":8317,"BSTAR":-3.5572e-5,"MEAN_MOTION_DOT":-1.412e-5,"MEAN_MOTION_DDOT":0},{"OBJECT_NAME":"STARLINK-31883","OBJECT_ID":"2024-111E","EPOCH":"2025-11-25T23:56:00.286656","MEAN_MOTION":15.30183817,"ECCENTRICITY":0.00010605,"INCLINATION":53.1578,"RA_OF_ASC_NODE":197.5597,"ARG_OF_PERICENTER":95.1006,"MEAN_ANOMALY":265.0115,"EPHEMERIS_TYPE":0,"CLASSIFICATION_TYPE":"U","NORAD_CAT_ID":60020,"ELEMENT_SET_NO":999,"REV_AT_EPOCH":8310,"BSTAR":-0.00018045657,"MEAN_MOTION_DOT":-5.697e-5,"MEAN_MOTION_DDOT":0},{"OBJECT_NAME":"STARLINK-31967","OBJECT_ID":"2024-111F","EPOCH":"2025-11-26T01:48:08.949312","MEAN_MOTION":15.30187199,"ECCENTRICITY":0.000119,"INCLINATION":53.1598,"RA_OF_ASC_NODE":196.6202,"ARG_OF_PERICENTER":88.3816,"MEAN_ANOMALY":271.7321,"EPHEMERIS_TYPE":0,"CLASSIFICATION_TYPE":"U","NORAD_CAT_ID":60021,"ELEMENT_SET_NO":999,"REV_AT_EPOCH":8318,"BSTAR":-2.6789e-5,"MEAN_MOTION_DOT":-1.152e-5,"MEAN_MOTION_DDOT":0}]
