STARLINK-11144 [DTC]    
1 59955U 24107L   25330.19510316 -.00000111  00000+0  39443-5 0  9997
2 59955  53.1580  41.2635 0001057  75.0607 285.0528 15.69708027 85958
STARLINK-11134 [DTC]    
1 59956U 24107M   25330.19019875 -.00000799  00000+0 -17389-5 0  9990
2 59956  53.1590  41.2252 0000842 104.9798 255.1313 15.69706043 85821
STARLINK-11142 [DTC]    
1 59957U 24107N   25330.18529067 -.00000549  00000+0  32415-6 0  9999
2 59957  53.1582  41.1964 0000898  59.7710 300.3397 15.69713422 85907
STARLINK-31995          
1 59958U 24107P   25330.01199474 -.00001648  00000+0 -43575-4 0  9996
2 59958  53.1589 187.0550 0000570  69.2776 290.8286 15.30174735 82724
STARLINK-31989          
1 59959U 24107Q   25330.00566245  .00000569  00000+0  31338-4 0  9993
2 59959  53.1594 187.0172 0001331  85.4133 274.7020 15.30192740 83920
STARLINK-31856          
1 59960U 24107R   25330.00884769 -.00000602  00000+0 -81993-5 0  9992
2 59960  53.1584 187.0357 0001440  81.7442 278.3722 15.30182275 83920
STARLINK-31993          
1 59961U 24107S   25330.01832433 -.00000144  00000+0  72710-5 0  9992
2 59961  53.1599 187.0918 0001236  94.9986 265.1156 15.30197604 83862
STARLINK-31980          
1 59962U 24107T   25330.02571566 -.00000256  00000+0  34936-5 0  9993
2 59962  53.1599 187.1357 0001238  88.2329 271.8814 15.30187576 83929
STARLINK-31991          
1 59963U 24107U   25330.01515854  .00000646  00000+0  33954-4 0  9991
2 59963  53.1586 187.0730 0001294  85.4214 274.6935 15.30194097 83925
STARLINK-31979          
1 59964U 24107V   25330.02254319  .00001553  00000+0  64584-4 0  9990
2 59964  53.1594 187.1170 0001258  74.4646 285.6494 15.30184662 83874
STARLINK-31978          
1 60016U 24111A   25330.00040123  .00000552  00000+0  30777-4 0  9994
2 60016  53.1575 197.5812 0001475  88.1176 271.9994 15.30186254 83054
STARLINK-31987          
1 60017U 24111B   25329.99406985  .00000105  00000+0  15679-4 0  9991
2 60017  53.1602 197.5411 0001164  90.1011 270.0124 15.30193296 83113
STARLINK-31984          
1 60018U 24111C   25330.05199656 -.00000122  00000+0  79964-5 0  9993
2 60018  53.1591 197.1875 0001221  76.4190 283.6947 15.30193259 83011
STARLINK-31986          
1 60019U 24111D   25330.04250162 -.00001412  00000+0 -35572-4 0  9993
2 60019  53.1593 197.1258 0001197  82.6145 277.4992 15.30184150 83178
STARLINK-31883          
1 60020U 24111E   25329.99722554 -.00005697  00000+0 -18046-3 0  9991
2 60020  53.1578 197.5597 0001060  95.1006 265.0115 15.30183817 83109
STARLINK-31967          
1 60021U 24111F   25330.07510358 -.00001152  00000+0 -26789-4 0  9996
2 60021  53.1598 196.6202 0001190  88.3816 271.7321 15.30187199 83180
